NORAD_CAT_ID,OBJECT_NAME,OBJECT_TYPE,EPOCH,MEAN_MOTION,ECCENTRICITY,INCLINATION,RA_OF_ASC_NODE,ARG_OF_PERICENTER,MEAN_ANOMALY,BSTAR,MEAN_MOTION_DOT,MEAN_MOTION_DDOT,TLE_LINE0,TLE_LINE1,TLE_LINE2,SEMIMAJOR_AXIS,PERIOD,APOGEE,PERIGEE,DECAYED
53783.0,STARLINK-4536,PAYLOAD,2023-07-13 13:54:38,15.08842998,4.58e-05,53.2167,309.0341,113.2826,246.8214,-4.1387e-06,-3.53e-06,0.0,0 STARLINK-4536,1 53783U 22111L   23194.57960697 -.00000353  00000-0 -41387-5 0  9992,2 53783  53.2167 309.0341 0000458 113.2826 246.8214 15.08842998 46430,6917.871,95.437,540.053,539.419,0.0
53783.0,STARLINK-4536,PAYLOAD,2023-07-14 16:56:11,15.0885284,8.38e-05,53.2176,303.9798,70.1777,289.9305,1.3635e-05,-7.1e-07,0.0,0 STARLINK-4536,1 53783U 22111L   23195.70568322 -.00000071  00000-0  13635-4 0  9997,2 53783  53.2176 303.9798 0000838  70.1777 289.9305 15.08852840 46602,6917.841,95.437,540.286,539.126,0.0
53783.0,STARLINK-4536,PAYLOAD,2023-07-15 12:00:49,15.08839365,9.41e-05,53.2188,300.4132,75.0289,285.0808,8.3757e-05,1.045e-05,0.0,0 STARLINK-4536,1 53783U 22111L   23196.50056977  .00001045  00000-0  83757-4 0  9997,2 53783  53.2188 300.4132 0000941  75.0289 285.0808 15.08839365 46721,6917.882,95.438,540.398,539.096,0.0
53783.0,STARLINK-4536,PAYLOAD,2023-07-15 16:46:58,15.08847578,9.61e-05,53.2196,299.5207,90.857,269.2532,0.00013248,1.822e-05,0.0,0 STARLINK-4536,1 53783U 22111L   23196.69928274  .00001822  00000-0  13248-3 0  9995,2 53783  53.2196 299.5207 0000961  90.8570 269.2532 15.08847578 46757,6917.857,95.437,540.387,539.057,0.0
53783.0,STARLINK-4536,PAYLOAD,2023-07-16 08:40:50,15.08838891,9.38e-05,53.2183,296.5471,78.6131,281.4966,-2.1561e-05,-6.31e-06,0.0,0 STARLINK-4536,1 53783U 22111L   23197.36169706 -.00000631  00000-0 -21561-4 0  9994,2 53783  53.2183 296.5471 0000938  78.6131 281.4966 15.08838891 46850,6917.884,95.438,540.398,539.1,0.0
53783.0,STARLINK-4536,PAYLOAD,2023-07-17 08:31:36,15.08847785,6.58e-05,53.2171,292.0831,77.7615,282.3451,4.6933e-05,4.6e-06,0.0,0 STARLINK-4536,1 53783U 22111L   23198.35528866  .00000460  00000-0  46933-4 0  9998,2 53783  53.2171 292.0831 0000658  77.7615 282.3451 15.08847785 47003,6917.857,95.437,540.177,539.266,0.0
53783.0,STARLINK-4536,PAYLOAD,2023-07-17 14:53:09,15.0885552,7.41e-05,53.2168,290.8947,74.6928,285.4146,0.00020888,3.04e-05,0.0,0 STARLINK-4536,1 53783U 22111L   23198.62024355  .00003040  00000-0  20888-3 0  9999,2 53783  53.2168 290.8947 0000741  74.6928 285.4146 15.08855520 47044,6917.833,95.437,540.211,539.185,0.0
53783.0,STARLINK-4536,PAYLOAD,2023-07-18 11:33:10,15.08836486,8.62e-05,53.2167,287.0292,80.6596,279.4493,5.4707e-05,5.83e-06,0.0,0 STARLINK-4536,1 53783U 22111L   23199.48137618  .00000583  00000-0  54707-4 0  9998,2 53783  53.2167 287.0292 0000862  80.6596 279.4493 15.08836486 47178,6917.891,95.438,540.352,539.16,0.0
53783.0,STARLINK-4536,PAYLOAD,2023-07-19 17:45:30,15.08840859,0.0001042,53.2171,281.3791,92.1168,267.9944,0.00015799,2.228e-05,0.0,0 STARLINK-4536,1 53783U 22111L   23200.73993859  .00002228  00000-0  15799-3 0  9991,2 53783  53.2171 281.3791 0001042  92.1168 267.9944 15.08840859 47361,6917.878,95.438,540.464,539.022,0.0
53783.0,STARLINK-4536,PAYLOAD,2023-07-21 07:54:45,15.08847932,0.0002154,53.2161,274.234,132.9767,227.1406,0.00016011,2.261e-05,0.0,0 STARLINK-4536,1 53783U 22111L   23202.32969347  .00002261  00000-0  16011-3 0  9998,2 53783  53.2161 274.2340 0002154 132.9767 227.1406 15.08847932 47601,6917.856,95.437,541.211,538.231,0.0
53783.0,STARLINK-4536,PAYLOAD,2023-07-24 04:16:20,15.08840756,0.0001452,53.2155,261.4534,91.3319,268.784,5.6202e-05,6.07e-06,0.0,0 STARLINK-4536,1 53783U 22111L   23205.17801895  .00000607  00000-0  56202-4 0  9996,2 53783  53.2155 261.4534 0001452  91.3319 268.7840 15.08840756 48845,6917.878,95.438,540.748,538.739,0.0
53783.0,STARLINK-4536,PAYLOAD,2023-07-25 10:28:40,15.08843249,0.0001014,53.2153,255.8036,87.0618,273.0491,0.00015606,2.197e-05,0.0,0 STARLINK-4536,1 53783U 22111L   23206.43658039  .00002197  00000-0  15606-3 0  9994,2 53783  53.2153 255.8036 0001014  87.0618 273.0491 15.08843249 49038,6917.87,95.437,540.437,539.034,0.0
53783.0,STARLINK-4536,PAYLOAD,2023-07-26 11:54:50,15.08846276,9.86e-05,53.2153,251.0477,79.8338,280.2766,0.00018272,2.622e-05,0.0,0 STARLINK-4536,1 53783U 22111L   23207.49641853  .00002622  00000-0  18272-3 0  9992,2 53783  53.2153 251.0477 0000986  79.8338 280.2766 15.08846276 49195,6917.861,95.437,540.408,539.044,0.0
53783.0,STARLINK-4536,PAYLOAD,2023-07-26 19:51:44,15.08890074,0.0001163,53.2152,249.5607,83.6687,276.4438,-0.00090765,-0.00014724,0.0,0 STARLINK-4536,1 53783U 22111L   23207.82760268 -.00014724  00000-0 -90765-3 0  9996,2 53783  53.2152 249.5607 0001163  83.6687 276.4438 15.08890074 49243,6917.727,95.434,540.397,538.788,0.0
53783.0,STARLINK-4536,PAYLOAD,2023-07-27 11:45:37,15.08844641,0.0001088,53.2148,246.5871,99.3936,260.7179,0.00013258,1.823e-05,0.0,0 STARLINK-4536,1 53783U 22111L   23208.49001709  .00001823  00000-0  13258-3 0  9994,2 53783  53.2148 246.5871 0001088  99.3936 260.7179 15.08844641 49343,6917.866,95.437,540.484,538.979,0.0
53783.0,STARLINK-4536,PAYLOAD,2023-07-27 14:56:23,15.08846586,0.0001035,53.2147,245.9919,92.4762,267.6349,0.00016447,2.331e-05,0.0,0 STARLINK-4536,1 53783U 22111L   23208.62249604  .00002331  00000-0  16447-3 0  9995,2 53783  53.2147 245.9919 0001035  92.4762 267.6349 15.08846586 48558,6917.86,95.437,540.441,539.009,0.0
53783.0,STARLINK-4536,PAYLOAD,2023-07-27 19:42:33,15.08828991,0.0001008,53.2152,245.0998,87.0159,273.0948,-0.00017715,-3.105e-05,0.0,0 STARLINK-4536,1 53783U 22111L   23208.82122309 -.00003105  00000-0 -17715-3 0  9990,2 53783  53.2152 245.0998 0001008  87.0159 273.0948 15.08828991 49391,6917.914,95.438,540.476,539.082,0.0
53783.0,STARLINK-4536,PAYLOAD,2023-07-28 02:04:06,15.08827791,9.79e-05,53.2148,243.9107,84.1466,275.9638,-0.00013712,-2.469e-05,0.0,0 STARLINK-4536,1 53783U 22111L   23209.08618549 -.00002469  00000-0 -13712-3 0  9990,2 53783  53.2148 243.9107 0000979  84.1466 275.9638 15.08827791 48629,6917.918,95.438,540.46,539.105,0.0
53783.0,STARLINK-4536,PAYLOAD,2023-07-28 11:36:25,15.08830513,0.0001092,53.2145,242.1268,81.1836,278.928,-6.8056e-05,-1.37e-05,0.0,0 STARLINK-4536,1 53783U 22111L   23209.48362718 -.00001370  00000-0 -68056-4 0  9990,2 53783  53.2145 242.1268 0001092  81.1836 278.9280 15.08830513 49498,6917.909,95.438,540.53,539.019,0.0
53783.0,STARLINK-4536,PAYLOAD,2023-07-28 19:33:21,15.08832416,0.0001036,53.2144,240.6399,80.9561,279.1548,3.0228e-05,1.93e-06,0.0,0 STARLINK-4536,1 53783U 22111L   23209.81482872  .00000193  00000-0  30228-4 0  9991,2 53783  53.2144 240.6399 0001036  80.9561 279.1548 15.08832416 48735,6917.904,95.438,540.485,539.052,0.0
53783.0,STARLINK-4536,PAYLOAD,2023-07-29 19:24:08,15.08845659,0.0001123,53.2143,236.1792,74.2642,285.8473,0.0002886,4.309e-05,0.0,0 STARLINK-4536,1 53783U 22111L   23210.80842962  .00004309  00000-0  28860-3 0  9993,2 53783  53.2143 236.1792 0001123  74.2642 285.8473 15.08845659 48884,6917.863,95.437,540.505,538.951,0.0
53783.0,STARLINK-4536,PAYLOAD,2023-07-31 01:36:27,15.08848393,0.0001574,53.2168,230.528,69.7675,290.3486,0.000154,2.164e-05,0.0,0 STARLINK-4536,1 53783U 22111L   23212.06698570  .00002164  00000-0  15400-3 0  9990,2 53783  53.2168 230.5280 0001574  69.7675 290.3486 15.08848393 49071,6917.855,95.437,540.809,538.631,0.0
53783.0,STARLINK-4536,PAYLOAD,2023-08-01 01:27:14,15.08840205,0.000116,53.2147,226.0679,79.1183,280.9939,-1.3932e-05,-5.1e-06,0.0,0 STARLINK-4536,1 53783U 22111L   23213.06058632 -.00000510  00000-0 -13932-4 0  9994,2 53783  53.2147 226.0679 0001160  79.1183 280.9939 15.08840205 49229,6917.88,95.438,540.547,538.942,0.0
53783.0,STARLINK-4536,PAYLOAD,2023-08-02 09:14:57,15.08840185,0.0001156,53.2159,220.1212,84.2916,275.8208,6.0497e-05,6.75e-06,0.0,0 STARLINK-4536,1 53783U 22111L   23214.38538665  .00000675  00000-0  60497-4 0  9997,2 53783  53.2159 220.1212 0001156  84.2916 275.8208 15.08840185 49427,6917.88,95.438,540.545,538.945,0.0
53783.0,STARLINK-4536,PAYLOAD,2023-08-03 17:02:40,15.08836447,0.0001162,53.2156,214.1737,87.7481,272.3644,6.1659e-05,6.94e-06,0.0,0 STARLINK-4536,1 53783U 22111L   23215.71019180  .00000694  00000-0  61659-4 0  9993,2 53783  53.2156 214.1737 0001162  87.7481 272.3644 15.08836447 49625,6917.891,95.438,540.56,538.952,0.0
53783.0,STARLINK-4536,PAYLOAD,2023-08-05 02:25:46,15.08838138,0.000117,53.2154,207.9285,86.5137,273.5989,6.1859e-05,6.97e-06,0.0,0 STARLINK-4536,1 53783U 22111L   23217.10123285  .00000697  00000-0  61859-4 0  9995,2 53783  53.2154 207.9285 0001170  86.5137 273.5989 15.08838138 49832,6917.886,95.438,540.56,538.942,0.0
53783.0,STARLINK-4536,PAYLOAD,2023-08-05 08:47:18,15.08845097,0.0001211,53.2156,206.7389,86.5504,273.5627,0.00010125,1.324e-05,0.0,0 STARLINK-4536,1 53783U 22111L   23217.36618757  .00001324  00000-0  10125-3 0  9993,2 53783  53.2156 206.7389 0001211  86.5504 273.5627 15.08845097 49875,6917.865,95.437,540.568,538.892,0.0
53783.0,STARLINK-4536,PAYLOAD,2023-08-06 05:27:19,15.08841676,0.0001233,53.2159,202.873,86.646,273.4673,8.8268e-05,1.117e-05,0.0,0 STARLINK-4536,1 53783U 22111L   23218.22730955  .00001117  00000-0  88268-4 0  9998,2 53783  53.2159 202.8730 0001233  86.6460 273.4673 15.08841676 50007,6917.875,95.437,540.593,538.887,0.0
53783.0,STARLINK-4536,PAYLOAD,2023-08-06 16:35:01,15.08836868,0.0001165,53.2161,200.7912,88.5162,271.5963,2.9329e-05,1.79e-06,0.0,0 STARLINK-4536,1 53783U 22111L   23218.69099446  .00000179  00000-0  29329-4 0  9992,2 53783  53.2161 200.7912 0001165  88.5162 271.5963 15.08836868 50078,6917.89,95.438,540.561,538.949,0.0
53783.0,STARLINK-4536,PAYLOAD,2023-08-07 10:04:16,15.08844529,0.0001194,53.2161,197.5208,90.8718,269.241,3.8869e-05,3.31e-06,0.0,0 STARLINK-4536,1 53783U 22111L   23219.41963005  .00000331  00000-0  38869-4 0  9993,2 53783  53.2161 197.5208 0001194  90.8718 269.2410 15.08844529 50180,6917.867,95.437,540.558,538.906,0.0
